start=new Date('2023-06-04T00:00:00.000Z').valueOf();
sats=[{"PERIAPSIS":"539.068","EPOCH":"2023-06-03T20:38:20.275296","TLE_LINE2":"2 52271  53.2168 322.4196 0000838  99.9702 260.1385 15.08871947 61918","TLE_LINE1":"1 52271U 22041L   23154.85995689  .00012589  00000-0  80693-3 0  9994","ELEMENT_SET_NO":"999","COUNTRY_CODE":"US","INCLINATION":"53.2168","ECCENTRICITY":"0.00008380","CENTER_NAME":"EARTH","MEAN_MOTION_DDOT":"0.0000000000000","TIME_SYSTEM":"UTC","LAUNCH_DATE":"2022-04-21","SITE":"AFETR","REV_AT_EPOCH":"6191","MEAN_MOTION_DOT":"0.00012589","SEMIMAJOR_AXIS":"6917.783","RA_OF_ASC_NODE":"322.4196","OBJECT_NAME":"STARLINK-3788","GP_ID":"233144345","DECAY_DATE":null,"MEAN_MOTION":"15.08871947","REF_FRAME":"TEME","PERIOD":"95.436","OBJECT_TYPE":"PAYLOAD","FILE":"3924324","APOAPSIS":"540.227","EPHEMERIS_TYPE":"0","OBJECT_ID":"2022-041L","BSTAR":"0.00080693000000","MEAN_ANOMALY":"260.1385","NORAD_CAT_ID":"52271","CLASSIFICATION_TYPE":"U","ARG_OF_PERICENTER":"99.9702","RCS_SIZE":"LARGE","MEAN_ELEMENT_THEORY":"SGP4"},{"SEMIMAJOR_AXIS":"6917.870","RA_OF_ASC_NODE":"322.4604","OBJECT_NAME":"STARLINK-3781","REV_AT_EPOCH":"6191","SITE":"AFETR","MEAN_MOTION_DOT":"0.00001103","CENTER_NAME":"EARTH","MEAN_MOTION_DDOT":"0.0000000000000","LAUNCH_DATE":"2022-04-21","TIME_SYSTEM":"UTC","ELEMENT_SET_NO":"999","COUNTRY_CODE":"US","INCLINATION":"53.2179","ECCENTRICITY":"0.00009290","PERIAPSIS":"539.092","EPOCH":"2023-06-03T20:22:26.044320","TLE_LINE2":"2 52272  53.2179 322.4604 0000929  86.8603 273.2496 15.08843408 61910","TLE_LINE1":"1 52272U 22041M   23154.84891255  .00001103  00000-0  87345-4 0  9990","MEAN_ELEMENT_THEORY":"SGP4","RCS_SIZE":"LARGE","ARG_OF_PERICENTER":"86.8603","CLASSIFICATION_TYPE":"U","EPHEMERIS_TYPE":"0","OBJECT_ID":"2022-041M","BSTAR":"0.00008734500000","MEAN_ANOMALY":"273.2496","NORAD_CAT_ID":"52272","APOAPSIS":"540.378","OBJECT_TYPE":"PAYLOAD","FILE":"3924324","GP_ID":"233145096","MEAN_MOTION":"15.08843408","DECAY_DATE":null,"PERIOD":"95.437","REF_FRAME":"TEME"},{"DECAY_DATE":null,"MEAN_MOTION":"15.08841418","PERIOD":"95.437","REF_FRAME":"TEME","GP_ID":"233143844","OBJECT_TYPE":"PAYLOAD","FILE":"3924324","APOAPSIS":"540.349","MEAN_ANOMALY":"272.6658","NORAD_CAT_ID":"52273","EPHEMERIS_TYPE":"0","BSTAR":"0.00004800300000","OBJECT_ID":"2022-041N","CLASSIFICATION_TYPE":"U","ARG_OF_PERICENTER":"87.4434","RCS_SIZE":"LARGE","MEAN_ELEMENT_THEORY":"SGP4","EPOCH":"2023-06-03T19:41:18.512160","PERIAPSIS":"539.133","TLE_LINE2":"2 52273  53.2173 312.2424 0000879  87.4434 272.6658 15.08841418 62053","TLE_LINE1":"1 52273U 22041N   23154.82035315  .00000476  00000-0  48003-4 0  9996","INCLINATION":"53.2173","ECCENTRICITY":"0.00008790","ELEMENT_SET_NO":"999","COUNTRY_CODE":"US","TIME_SYSTEM":"UTC","LAUNCH_DATE":"2022-04-21","MEAN_MOTION_DDOT":"0.0000000000000","CENTER_NAME":"EARTH","MEAN_MOTION_DOT":"0.00000476","SITE":"AFETR","REV_AT_EPOCH":"6205","RA_OF_ASC_NODE":"312.2424","OBJECT_NAME":"STARLINK-3782","SEMIMAJOR_AXIS":"6917.876"},{"ARG_OF_PERICENTER":"80.6272","CLASSIFICATION_TYPE":"U","MEAN_ELEMENT_THEORY":"SGP4","RCS_SIZE":"LARGE","FILE":"3924324","OBJECT_TYPE":"PAYLOAD","MEAN_MOTION":"15.08865917","DECAY_DATE":null,"PERIOD":"95.436","REF_FRAME":"TEME","GP_ID":"233143594","MEAN_ANOMALY":"279.4840","NORAD_CAT_ID":"52274","EPHEMERIS_TYPE":"0","OBJECT_ID":"2022-041P","BSTAR":"-0.00029109000000","APOAPSIS":"540.403","RA_OF_ASC_NODE":"322.7848","OBJECT_NAME":"STARLINK-3790","SEMIMAJOR_AXIS":"6917.801","INCLINATION":"53.2166","ECCENTRICITY":"0.00010650","ELEMENT_SET_NO":"999","COUNTRY_CODE":"US","PERIAPSIS":"538.929","EPOCH":"2023-06-03T18:41:44.691072","TLE_LINE1":"1 52274U 22041P   23154.77898948 -.00004921  00000-0 -29109-3 0  9996","TLE_LINE2":"2 52274  53.2166 322.7848 0001065  80.6272 279.4840 15.08865917 61906","MEAN_MOTION_DOT":"-0.00004921","SITE":"AFETR","REV_AT_EPOCH":"6190","LAUNCH_DATE":"2022-04-21","TIME_SYSTEM":"UTC","MEAN_MOTION_DDOT":"0.0000000000000","CENTER_NAME":"EARTH"},{"BSTAR":"0.00040185000000","OBJECT_ID":"2022-041Q","EPHEMERIS_TYPE":"0","NORAD_CAT_ID":"52275","MEAN_ANOMALY":"237.4627","APOAPSIS":"540.501","FILE":"3924324","OBJECT_TYPE":"PAYLOAD","GP_ID":"233144846","PERIOD":"95.439","REF_FRAME":"TEME","DECAY_DATE":null,"MEAN_MOTION":"15.08823265","MEAN_ELEMENT_THEORY":"SGP4","RCS_SIZE":"LARGE","ARG_OF_PERICENTER":"122.6463","CLASSIFICATION_TYPE":"U","SITE":"AFETR","REV_AT_EPOCH":"6190","MEAN_MOTION_DOT":"0.00006111","CENTER_NAME":"EARTH","MEAN_MOTION_DDOT":"0.0000000000000","TIME_SYSTEM":"UTC","LAUNCH_DATE":"2022-04-21","COUNTRY_CODE":"US","ELEMENT_SET_NO":"999","ECCENTRICITY":"0.00010190","INCLINATION":"53.2175","TLE_LINE2":"2 52275  53.2175 322.7504 0001019 122.6463 237.4627 15.08823265 61901","TLE_LINE1":"1 52275U 22041Q   23154.78635847  .00006111  00000-0  40185-3 0  9993","PERIAPSIS":"539.092","EPOCH":"2023-06-03T18:52:21.371808","SEMIMAJOR_AXIS":"6917.932","OBJECT_NAME":"STARLINK-3784","RA_OF_ASC_NODE":"322.7504"},{"GP_ID":"233144596","PERIOD":"95.438","REF_FRAME":"TEME","MEAN_MOTION":"15.08839024","DECAY_DATE":null,"OBJECT_TYPE":"PAYLOAD","FILE":"3924324","APOAPSIS":"540.419","OBJECT_ID":"2022-041R","BSTAR":"0.00008030700000","EPHEMERIS_TYPE":"0","NORAD_CAT_ID":"52276","MEAN_ANOMALY":"266.3438","CLASSIFICATION_TYPE":"U","ARG_OF_PERICENTER":"93.7665","RCS_SIZE":"LARGE","MEAN_ELEMENT_THEORY":"SGP4","TLE_LINE2":"2 52276  53.2175 322.5038 0000970  93.7665 266.3438 15.08839024 61911","TLE_LINE1":"1 52276U 22041R   23154.84155613  .00000991  00000-0  80307-4 0  9990","EPOCH":"2023-06-03T20:11:50.449632","PERIAPSIS":"539.077","COUNTRY_CODE":"US","ELEMENT_SET_NO":"999","ECCENTRICITY":"0.00009700","INCLINATION":"53.2175","MEAN_MOTION_DDOT":"0.0000000000000","CENTER_NAME":"EARTH","LAUNCH_DATE":"2022-04-21","TIME_SYSTEM":"UTC","SITE":"AFETR","REV_AT_EPOCH":"6191","MEAN_MOTION_DOT":"0.00000991","SEMIMAJOR_AXIS":"6917.883","OBJECT_NAME":"STARLINK-3778","RA_OF_ASC_NODE":"322.5038"},{"MEAN_ELEMENT_THEORY":"SGP4","RCS_SIZE":"LARGE","ARG_OF_PERICENTER":"127.5852","CLASSIFICATION_TYPE":"U","BSTAR":"0.00154350000000","OBJECT_ID":"2022-041S","EPHEMERIS_TYPE":"0","NORAD_CAT_ID":"52277","MEAN_ANOMALY":"232.5383","APOAPSIS":"507.290","OBJECT_TYPE":"PAYLOAD","FILE":"3924324","GP_ID":"233143344","PERIOD":"94.730","REF_FRAME":"TEME","MEAN_MOTION":"15.20117630","DECAY_DATE":null,"SEMIMAJOR_AXIS":"6883.622","OBJECT_NAME":"STARLINK-3787","RA_OF_ASC_NODE":"317.8500","SITE":"AFETR","REV_AT_EPOCH":"6197","MEAN_MOTION_DOT":"0.00033610","CENTER_NAME":"EARTH","MEAN_MOTION_DDOT":"0.0000000000000","LAUNCH_DATE":"2022-04-21","TIME_SYSTEM":"UTC","COUNTRY_CODE":"US","ELEMENT_SET_NO":"999","ECCENTRICITY":"0.00026180","INCLINATION":"53.2087","TLE_LINE1":"1 52277U 22041S   23154.77675463  .00033610  00000-0  15435-2 0  9995","TLE_LINE2":"2 52277  53.2087 317.8500 0002618 127.5852 232.5383 15.20117630 61976","PERIAPSIS":"503.685","EPOCH":"2023-06-03T18:38:31.600032"},{"APOAPSIS":"540.438","BSTAR":"0.00003200700000","OBJECT_ID":"2022-041T","EPHEMERIS_TYPE":"0","NORAD_CAT_ID":"52278","MEAN_ANOMALY":"261.9825","GP_ID":"233144095","PERIOD":"95.438","REF_FRAME":"TEME","DECAY_DATE":null,"MEAN_MOTION":"15.08838506","OBJECT_TYPE":"PAYLOAD","FILE":"3924324","RCS_SIZE":"LARGE","MEAN_ELEMENT_THEORY":"SGP4","CLASSIFICATION_TYPE":"U","ARG_OF_PERICENTER":"98.1280","MEAN_MOTION_DDOT":"0.0000000000000","CENTER_NAME":"EARTH","TIME_SYSTEM":"UTC","LAUNCH_DATE":"2022-04-21","SITE":"AFETR","REV_AT_EPOCH":"6190","MEAN_MOTION_DOT":"0.00000222","TLE_LINE2":"2 52278  53.2169 322.8176 0000994  98.1280 261.9825 15.08838506 61904","TLE_LINE1":"1 52278U 22041T   23154.77163918  .00000222  00000-0  32007-4 0  9992","EPOCH":"2023-06-03T18:31:09.625152","PERIAPSIS":"539.062","COUNTRY_CODE":"US","ELEMENT_SET_NO":"999","ECCENTRICITY":"0.00009940","INCLINATION":"53.2169","SEMIMAJOR_AXIS":"6917.885","OBJECT_NAME":"STARLINK-3780","RA_OF_ASC_NODE":"322.8176"},{"APOAPSIS":"501.640","BSTAR":"0.00132080000000","OBJECT_ID":"2022-041U","EPHEMERIS_TYPE":"0","NORAD_CAT_ID":"52279","MEAN_ANOMALY":"230.5352","GP_ID":"233144346","PERIOD":"94.621","REF_FRAME":"TEME","MEAN_MOTION":"15.21859376","DECAY_DATE":null,"OBJECT_TYPE":"PAYLOAD","FILE":"3924324","RCS_SIZE":"LARGE","MEAN_ELEMENT_THEORY":"SGP4","CLASSIFICATION_TYPE":"U","ARG_OF_PERICENTER":"129.5826","CENTER_NAME":"EARTH","MEAN_MOTION_DDOT":"0.0000000000000","LAUNCH_DATE":"2022-04-21","TIME_SYSTEM":"UTC","REV_AT_EPOCH":"6203","SITE":"AFETR","MEAN_MOTION_DOT":"0.00030212","TLE_LINE2":"2 52279  53.2214 314.2319 0002043 129.5826 230.5352 15.21859376 62037","TLE_LINE1":"1 52279U 22041U   23154.85624282  .00030212  00000-0  13208-2 0  9990","PERIAPSIS":"498.829","EPOCH":"2023-06-03T20:32:59.379648","COUNTRY_CODE":"US","ELEMENT_SET_NO":"999","ECCENTRICITY":"0.00020430","INCLINATION":"53.2214","SEMIMAJOR_AXIS":"6878.369","OBJECT_NAME":"STARLINK-3686","RA_OF_ASC_NODE":"314.2319"},{"COUNTRY_CODE":"US","ELEMENT_SET_NO":"999","ECCENTRICITY":"0.00008700","INCLINATION":"53.2175","TLE_LINE1":"1 52280U 22041V   23154.76059197  .00001121  00000-0  88475-4 0  9996","TLE_LINE2":"2 52280  53.2175 322.8683 0000870  94.4222 265.6870 15.08843680 61905","PERIAPSIS":"539.132","EPOCH":"2023-06-03T18:15:15.146208","SITE":"AFETR","REV_AT_EPOCH":"6190","MEAN_MOTION_DOT":"0.00001121","CENTER_NAME":"EARTH","MEAN_MOTION_DDOT":"0.0000000000000","LAUNCH_DATE":"2022-04-21","TIME_SYSTEM":"UTC","SEMIMAJOR_AXIS":"6917.869","OBJECT_NAME":"STARLINK-3764","RA_OF_ASC_NODE":"322.8683","FILE":"3924324","OBJECT_TYPE":"PAYLOAD","GP_ID":"233145097","REF_FRAME":"TEME","PERIOD":"95.437","MEAN_MOTION":"15.08843680","DECAY_DATE":null,"BSTAR":"0.00008847500000","OBJECT_ID":"2022-041V","EPHEMERIS_TYPE":"0","NORAD_CAT_ID":"52280","MEAN_ANOMALY":"265.6870","APOAPSIS":"540.336","ARG_OF_PERICENTER":"94.4222","CLASSIFICATION_TYPE":"U","MEAN_ELEMENT_THEORY":"SGP4","RCS_SIZE":"LARGE"}];
